RS57S MONITOR-4
1 57182U 23091S   25363.87647152  .00016946  00000+0  70283-3 0  9995
2 57182  97.5343  61.2981 0012251 342.5301  17.5513 15.23876832138472
RS-38S
1 57189U 23091Z   25363.84542635  .00024058  00000+0  83054-3 0  9992
2 57189  97.5347  65.4776 0007272 321.3499  38.7220 15.29930442138745
RS49S NANOZOND-1
1 57190U 23091AA  25363.87096978  .00109703  00000+0  15736-2 0  9993
2 57190  97.5262  74.6100 0004075 293.7116  66.3710 15.55753217139364
RS27S UTMN-2
1 57203U 23091AP  25363.84440091  .00020039  00000+0  75278-3 0  9996
2 57203  97.5348  64.0912 0008041 325.9927  34.0796 15.27189263138653
METEOR-M2-4
1 59051U 24039A   25363.86892638  .00000081  00000+0  56198-4 0  9998
2 59051  98.6791 320.5113 0006205 305.9476  54.1126 14.22404284 95198
SONATE-2
1 59112U 24043Q   25363.61618623  .00042903  00000+0  87463-3 0  9991
2 59112  97.5327 140.5102 0009239 102.5428 257.6855 15.46061199101586
MO-122
1 60209U 24125G   25363.86733242  .00050313  00000+0  97483-3 0  9990
2 60209  97.2512 214.2633 0015475 116.8812 243.4022 15.47418496 83259
GRBBeta
1 60237U 24128C   25363.49619047  .00007361  00000+0  51395-3 0  9996
2 60237  61.9909  90.9288 0055610  99.7198 261.0181 15.04938713 80716
Curium One
1 60242U 24128H   25363.82507545  .00013796  00000+0  84421-3 0  9993
2 60242  61.9799  84.2429 0055226  96.4280 264.3107 15.09234336 80866
ROBUSTA-3A
1 60243U 24128J   25363.50484826  .00014253  00000+0  88859-3 0  9993
2 60243  61.9873  86.9822 0055471  93.9142 266.8295 15.08525694 80793
CatSat
1 60246U 24125J   25363.55650139  .00057959  00000+0  13324-2 0  9994
2 60246  97.2298 210.7728 0034349  85.1290 275.3878 15.41839736 81110
ARTIC WX
1 60543U 24149CD  25363.69775137  .00001691  00000+0  18177-3 0  9995
2 60543  97.7004  73.8504 0001375 350.3165   9.8026 14.89816866 74062
ARCTICSAT 1
1 61762U 24199AD  25363.81646918  .00083200  00000+0  12730-2 0  9996
2 61762  97.3217 235.0839 0007996 139.7118 220.4730 15.54057554111501
MORDOVIA-IOT
1 61765U 24199AG  25362.30916782  .00248545  00000+0  16475-2 0  9996
2 61765  97.3083 236.6676 0006541 118.7846 241.4077 15.74767904108334
HYPERVIEW-1G (RS66S)
1 61772U 24199AP  25363.86687750  .00067925  00000+0  12298-2 0  9996
2 61772  97.3204 233.5322 0009447 165.3197 194.8330 15.49375861108260
AO-123
1 61781U 24199AY  25363.91471671  .00017616  00000+0  56418-3 0  9990
2 61781  97.3243 229.1796 0013901 188.0838 172.0182 15.32347143107977
ZIMSAT 2
1 61783U 24199BA  25361.58198973  .00358820  00000+0  17952-2 0  9998
2 61783  97.3047 235.3597 0006528 129.8237 230.3607 15.80833029111344
SAMSAT-IONOSPHERE
1 61784U 24199BB  25363.86420425  .00047511  00000+0  10367-2 0  9997
2 61784  97.3217 232.2141 0011087 173.4963 186.6432 15.44014421111326
CROCUBE
1 62394U 24247T   25362.75526371  .00038788  00000+0  10847-2 0  9992
2 62394  44.9741 131.3710 0004662 238.6992 121.3438 15.36079661 57039
HADES-R (SO-124)
1 62690U 25009CK  25363.16966745  .00301464  00000+0  29480-2 0  9994
2 62690  97.3835  86.4907 0001746 301.0744  59.0344 15.65190986 53341
HYDRA-T
1 62692U 25009CM  25362.16657022  .00325136  00000+0  29053-2 0  9998
2 62692  97.3834  85.6956 0002145 291.8844  68.2188 15.67380277 53207
JINJUSat 1B
1 63210U 25052A   25363.69262994  .00026230  00000+0  98140-3 0  9999
2 63210  97.4197 255.7486 0003626   3.0900 357.0361 15.27288226 44171
NUSHSAT 1
1 63211U 25052B   25363.67578323  .00031211  00000+0  11264-2 0  9990
2 63211  97.4176 255.8774 0003828   7.4274 352.7021 15.28439884 44181
TEVEL2-4
1 63213U 25052D   25363.68432743  .00028702  00000+0  10593-2 0  9993
2 63213  97.4105 255.4021 0003818  28.1290 332.0155 15.27720952 44179
TEVEL2-5
1 63214U 25052E   25363.69064559  .00028055  00000+0  10381-2 0  9997
2 63214  97.4096 255.3937 0003775  27.7029 332.4410 15.27639401 44177
TEVEL2-6
1 63215U 25052F   25363.43645297  .00029220  00000+0  10829-2 0  9996
2 63215  97.4101 255.1289 0003887  28.1736 331.9713 15.27579005 44136
TEVEL2-1
1 63217U 25052H   25363.61381109  .00027975  00000+0  10475-2 0  9999
2 63217  97.4073 255.1017 0004387  36.1308 324.0227 15.27244967 44156
TEVEL2-3
1 63218U 25052J   25363.61275898  .00028225  00000+0  10561-2 0  9992
2 63218  97.4074 255.1073 0004473  36.5673 323.5870 15.27269120 44151
TEVEL2-2
1 63219U 25052K   25363.61456229  .00027772  00000+0  10399-2 0  9997
2 63219  97.4079 255.1026 0004264  36.7395 323.4136 15.27246627 44157
TEVEL2-9
1 63237U 25052AD  25363.65993133  .00027266  00000+0  10684-2 0  9996
2 63237  97.4137 254.8298 0008405  34.9987 325.1802 15.25717182 44120
TEVEL2-7
1 63238U 25052AE  25363.67557412  .00025959  00000+0  10225-2 0  9993
2 63238  97.4139 254.8158 0008399  35.7464 324.4335 15.25555223 44128
TEVEL2-8
1 63239U 25052AF  25363.61590172  .00025765  00000+0  10157-2 0  9997
2 63239  97.4137 254.7408 0008567  35.7216 324.4594 15.25526368 44110
HYDRA-W
1 63490U 25052BL  25363.69777648  .00114915  00000+0  24879-2 0  9991
2 63490  97.4048 257.7490 0009635  29.5754 330.6037 15.43976922 44339
HADES-ICM (SO-125)
1 63492U 25052BN  25363.65083201  .00100885  00000+0  23627-2 0  9995
2 63492  97.4062 257.3804 0010133  31.6178 328.5675 15.41676836 44301
PARUS-T2
1 64574U 25135AY  25363.89528216  .00006879  00000+0  64840-3 0  9996
2 64574  97.7604 115.5294 0002287 153.9443 206.1892 14.94116317 28630
Dragonfly
1 65729U 98067XH  25363.17414471  .00287930  00000+0  15917-2 0  9990
2 65729  51.6250  51.2497 0008582  13.4870 346.6359 15.78189024 15753
RSP-03
1 65732U 98067XL  25363.47097635  .00212076  00000+0  14657-2 0  9995
2 65732  51.6266  50.9997 0006262 356.1221   3.9728 15.73330370 15799
GHS-01
1 65733U 98067XM  25363.40206568  .00414300  00000+0  17754-2 0  9991
2 65733  51.6276  49.0281 0009715  18.8599 341.2762 15.83384232 15818
BOTAN
1 65942U 98067XP  25363.38831920  .00159209  00000+0  14634-2 0  9994
2 65942  51.6280  54.9645 0003949   6.1165 353.9879 15.66651732 12477
CEVROSAT1
1 66309U 25248S   25363.25155569  .00028685  00000+0  13784-2 0  9995
2 66309  45.4084 311.4968 0002029 217.9180 142.1563 15.18407246  8664
BEE-1000
1 66650U 25274A   25363.79063623  .00002227  00000+0  22648-3 0  9995
2 66650  97.7403 290.6670 0011522 189.7265 170.3733 14.91723976  4944
SPIRONE
1 66657U 25274H   25363.77320828  .00004310  00000+0  42417-3 0  9994
2 66657  97.7398 290.6883 0011204 211.8050 148.2494 14.92564781  4942
K-HERO
1 66660U 25274L   25363.76198356  .00004886  00000+0  47389-3 0  9997
2 66660  97.7407 290.7058 0012931 217.3156 142.7166 14.93066235  4945
SNUGLITE-III DURI
1 66661U 25274M   25363.75885925  .00004117  00000+0  39888-3 0  9994
2 66661  97.7405 290.7085 0013593 218.8575 141.1668 14.93192587  4940
SilverSat
1 66909U 98067XV  25363.52341789  .00105899  00000+0  15885-2 0  9998
2 66909  51.6308  58.8658 0003909 333.7603  26.3189 15.54074653  4228
Delfi-N3xt
1 39428U 13066N   25363.70942561  .00015100  00000-0  13987-2 0  9992
2 39428  97.8344 279.5115 0080448  50.4083 310.4203 14.92114907649322
IO-86
1 40931U 15052B   25151.18580175  .00001241  00000-0  78118-4 0  9996
2 40931   6.0006  24.0987 0012733 338.8432  21.1169 14.78805930523159
PARUS-T1
1 98707U 25009N   25063.20000000  .00000000  00000-0  00000-0 0    08
2 98707  97.4430 144.9801 0003811 149.1702 136.3402 15.16239457    06
T.MicroSat-1
1 98515U 25276Y   25347.12519372 +.00009703 +00000+0 +47621-3 0 00218
2 98515  97.4377  58.8963 0002080  99.7173 260.4296 15.18293117002180
CORIOLIS
1 27640U 03001A   25363.72555251  .00000233  00000+0  13034-3 0  9995
2 27640  98.7142   8.1942 0013724 345.4595  14.6184 14.19879601190176
